[{"OBJECT_NAME":"STARLINK-32387","OBJECT_ID":"2024-195T","EPOCH":"2026-03-09T12:51:14.041152","MEAN_MOTION":15.30196832,"ECCENTRICITY":0.00010346,"INCLINATION":53.1607,"RA_OF_ASC_NODE":155.6626,"ARG_OF_PERICENTER":95.1423,"MEAN_ANOMALY":264.9696,"EPHEMERIS_TYPE":0,"CLASSIFICATION_TYPE":"U","NORAD_CAT_ID":61704,"ELEMENT_SET_NO":999,"REV_AT_EPOCH":7716,"BSTAR":-0.00014527991,"MEAN_MOTION_DOT":-4.659e-5,"MEAN_MOTION_DDOT":0},{"OBJECT_NAME":"NOAA 16 DEB","OBJECT_ID":"2000-055BK","EPOCH":"2026-03-09T02:17:10.174560","MEAN_MOTION":15.30191008,"ECCENTRICITY":0.00052528,"INCLINATION":98.9831,"RA_OF_ASC_NODE":305.6383,"ARG_OF_PERICENTER":26.64,"MEAN_ANOMALY":333.5104,"EPHEMERIS_TYPE":0,"CLASSIFICATION_TYPE":"U","NORAD_CAT_ID":41128,"ELEMENT_SET_NO":999,"REV_AT_EPOCH":53406,"BSTAR":0.017668961,"MEAN_MOTION_DOT":0.00549039,"MEAN_MOTION_DDOT":0}]
